start=new Date('2023-05-11T00:00:00.000Z').valueOf();
sats=[{"TIME_SYSTEM":"UTC","MEAN_MOTION_DOT":"0.00000721","NORAD_CAT_ID":"51757","CLASSIFICATION_TYPE":"U","RA_OF_ASC_NODE":"270.1978","RCS_SIZE":"LARGE","REF_FRAME":"TEME","OBJECT_ID":"2022-016AV","MEAN_MOTION_DDOT":"0.0000000000000","GP_ID":"231567230","FILE":"3904830","OBJECT_TYPE":"PAYLOAD","CENTER_NAME":"EARTH","COUNTRY_CODE":"US","APOAPSIS":"540.457","TLE_LINE1":"1 51757U 22016AV  23130.85255635  .00000721  00000-0  63378-4 0  9995","ELEMENT_SET_NO":"999","EPOCH":"2023-05-10T20:27:40.868640","LAUNCH_DATE":"2022-02-21","EPHEMERIS_TYPE":"0","PERIAPSIS":"538.958","SEMIMAJOR_AXIS":"6917.843","ECCENTRICITY":"0.00010830","OBJECT_NAME":"STARLINK-3459","ARG_OF_PERICENTER":"144.0672","TLE_LINE2":"2 51757  53.2179 270.1978 0001083 144.0672 216.0393 15.08852341 67637","REV_AT_EPOCH":"6763","PERIOD":"95.437","MEAN_MOTION":"15.08852341","BSTAR":"0.00006337800000","INCLINATION":"53.2179","SITE":"AFETR","MEAN_ELEMENT_THEORY":"SGP4","DECAY_DATE":null,"MEAN_ANOMALY":"216.0393"},{"MEAN_MOTION_DDOT":"0.0000000000000","GP_ID":"231543910","REF_FRAME":"TEME","OBJECT_ID":"2022-016AW","RCS_SIZE":"LARGE","CLASSIFICATION_TYPE":"U","RA_OF_ASC_NODE":"270.7799","MEAN_MOTION_DOT":"0.00001219","NORAD_CAT_ID":"51758","TIME_SYSTEM":"UTC","APOAPSIS":"540.267","TLE_LINE1":"1 51758U 22016AW  23130.71175847  .00001219  00000-0  94599-4 0  9999","OBJECT_TYPE":"PAYLOAD","CENTER_NAME":"EARTH","COUNTRY_CODE":"US","FILE":"3904797","ARG_OF_PERICENTER":"85.9649","SEMIMAJOR_AXIS":"6917.847","ECCENTRICITY":"0.00008020","OBJECT_NAME":"STARLINK-3458","PERIAPSIS":"539.158","EPHEMERIS_TYPE":"0","LAUNCH_DATE":"2022-02-21","EPOCH":"2023-05-10T17:04:55.931808","ELEMENT_SET_NO":"999","MEAN_ELEMENT_THEORY":"SGP4","MEAN_ANOMALY":"274.1435","DECAY_DATE":null,"SITE":"AFETR","INCLINATION":"53.2175","BSTAR":"0.00009459900000","PERIOD":"95.437","MEAN_MOTION":"15.08850784","TLE_LINE2":"2 51758  53.2175 270.7799 0000802  85.9649 274.1435 15.08850784 68751","REV_AT_EPOCH":"6875"},{"MEAN_ELEMENT_THEORY":"SGP4","MEAN_ANOMALY":"272.0732","DECAY_DATE":null,"SITE":"AFETR","INCLINATION":"53.2172","BSTAR":"0.00006672100000","PERIOD":"95.437","MEAN_MOTION":"15.08845656","TLE_LINE2":"2 51759  53.2172 270.8065 0001076  88.0384 272.0732 15.08845656 67613","REV_AT_EPOCH":"6761","ARG_OF_PERICENTER":"88.0384","SEMIMAJOR_AXIS":"6917.863","ECCENTRICITY":"0.00010760","OBJECT_NAME":"STARLINK-3456","PERIAPSIS":"538.984","EPHEMERIS_TYPE":"0","LAUNCH_DATE":"2022-02-21","EPOCH":"2023-05-10T17:10:14.729664","ELEMENT_SET_NO":"999","APOAPSIS":"540.472","TLE_LINE1":"1 51759U 22016AX  23130.71544826  .00000774  00000-0  66721-4 0  9998","OBJECT_TYPE":"PAYLOAD","CENTER_NAME":"EARTH","COUNTRY_CODE":"US","FILE":"3904830","MEAN_MOTION_DDOT":"0.0000000000000","GP_ID":"231567731","REF_FRAME":"TEME","OBJECT_ID":"2022-016AX","RCS_SIZE":"LARGE","CLASSIFICATION_TYPE":"U","RA_OF_ASC_NODE":"270.8065","MEAN_MOTION_DOT":"0.00000774","NORAD_CAT_ID":"51759","TIME_SYSTEM":"UTC"},{"GP_ID":"231567982","MEAN_MOTION_DDOT":"0.0000000000000","OBJECT_ID":"2022-017A","REF_FRAME":"TEME","RCS_SIZE":"LARGE","RA_OF_ASC_NODE":"300.6727","CLASSIFICATION_TYPE":"U","NORAD_CAT_ID":"51768","MEAN_MOTION_DOT":"0.00001721","TIME_SYSTEM":"UTC","TLE_LINE1":"1 51768U 22017A   23130.74580826  .00001721  00000-0  12615-3 0  9997","APOAPSIS":"540.428","COUNTRY_CODE":"US","CENTER_NAME":"EARTH","OBJECT_TYPE":"PAYLOAD","FILE":"3904830","ARG_OF_PERICENTER":"92.4727","OBJECT_NAME":"STARLINK-3622","SEMIMAJOR_AXIS":"6917.867","ECCENTRICITY":"0.00010060","PERIAPSIS":"539.036","EPHEMERIS_TYPE":"0","LAUNCH_DATE":"2022-02-25","EPOCH":"2023-05-10T17:53:57.833664","ELEMENT_SET_NO":"999","DECAY_DATE":null,"MEAN_ANOMALY":"267.6380","MEAN_ELEMENT_THEORY":"SGP4","SITE":"AFWTR","INCLINATION":"53.2164","BSTAR":"0.00012615000000","MEAN_MOTION":"15.08844405","PERIOD":"95.437","REV_AT_EPOCH":"6795","TLE_LINE2":"2 51768  53.2164 300.6727 0001006  92.4727 267.6380 15.08844405 67951"},{"EPHEMERIS_TYPE":"0","LAUNCH_DATE":"2022-02-25","EPOCH":"2023-05-10T17:43:21.861408","ELEMENT_SET_NO":"999","ARG_OF_PERICENTER":"88.3748","SEMIMAJOR_AXIS":"6917.878","ECCENTRICITY":"0.00009300","OBJECT_NAME":"STARLINK-3621","PERIAPSIS":"539.100","INCLINATION":"53.2164","BSTAR":"0.00009363300000","MEAN_MOTION":"15.08840662","PERIOD":"95.438","REV_AT_EPOCH":"6651","TLE_LINE2":"2 51769  53.2164 300.7028 0000930  88.3748 271.7350 15.08840662 66514","MEAN_ANOMALY":"271.7350","DECAY_DATE":null,"MEAN_ELEMENT_THEORY":"SGP4","SITE":"AFWTR","RA_OF_ASC_NODE":"300.7028","CLASSIFICATION_TYPE":"U","NORAD_CAT_ID":"51769","MEAN_MOTION_DOT":"0.00001203","TIME_SYSTEM":"UTC","GP_ID":"231566731","MEAN_MOTION_DDOT":"0.0000000000000","OBJECT_ID":"2022-017B","REF_FRAME":"TEME","RCS_SIZE":"LARGE","TLE_LINE1":"1 51769U 22017B   23130.73844747  .00001203  00000-0  93633-4 0  9997","APOAPSIS":"540.387","COUNTRY_CODE":"US","OBJECT_TYPE":"PAYLOAD","CENTER_NAME":"EARTH","FILE":"3904830"},{"NORAD_CAT_ID":"51770","MEAN_MOTION_DOT":"0.00000438","TIME_SYSTEM":"UTC","RA_OF_ASC_NODE":"300.6919","CLASSIFICATION_TYPE":"U","RCS_SIZE":"LARGE","GP_ID":"231567480","MEAN_MOTION_DDOT":"0.0000000000000","OBJECT_ID":"2022-017C","REF_FRAME":"TEME","FILE":"3904830","TLE_LINE1":"1 51770U 22017C   23130.74212558  .00000438  00000-0  45562-4 0  9996","APOAPSIS":"540.302","COUNTRY_CODE":"US","OBJECT_TYPE":"PAYLOAD","CENTER_NAME":"EARTH","EPOCH":"2023-05-10T17:48:39.650112","ELEMENT_SET_NO":"999","EPHEMERIS_TYPE":"0","LAUNCH_DATE":"2022-02-25","PERIAPSIS":"539.151","ARG_OF_PERICENTER":"93.4097","OBJECT_NAME":"STARLINK-3612","SEMIMAJOR_AXIS":"6917.861","ECCENTRICITY":"0.00008320","MEAN_MOTION":"15.08846232","PERIOD":"95.437","REV_AT_EPOCH":"6652","TLE_LINE2":"2 51770  53.2173 300.6919 0000832  93.4097 266.6990 15.08846232 66522","INCLINATION":"53.2173","BSTAR":"0.00004556200000","MEAN_ANOMALY":"266.6990","DECAY_DATE":null,"MEAN_ELEMENT_THEORY":"SGP4","SITE":"AFWTR"},{"REF_FRAME":"TEME","OBJECT_ID":"2022-017D","MEAN_MOTION_DDOT":"0.0000000000000","GP_ID":"231568232","RCS_SIZE":"LARGE","CLASSIFICATION_TYPE":"U","RA_OF_ASC_NODE":"300.7150","TIME_SYSTEM":"UTC","MEAN_MOTION_DOT":"0.00001050","NORAD_CAT_ID":"51771","OBJECT_TYPE":"PAYLOAD","CENTER_NAME":"EARTH","COUNTRY_CODE":"US","APOAPSIS":"540.280","TLE_LINE1":"1 51771U 22017D   23130.73572392  .00001050  00000-0  84048-4 0  9994","FILE":"3904830","OBJECT_NAME":"STARLINK-3614","SEMIMAJOR_AXIS":"6917.869","ECCENTRICITY":"0.00007890","ARG_OF_PERICENTER":"91.0635","PERIAPSIS":"539.188","LAUNCH_DATE":"2022-02-25","EPHEMERIS_TYPE":"0","ELEMENT_SET_NO":"999","EPOCH":"2023-05-10T17:39:26.546688","SITE":"AFWTR","MEAN_ELEMENT_THEORY":"SGP4","MEAN_ANOMALY":"269.0447","DECAY_DATE":null,"BSTAR":"0.00008404800000","INCLINATION":"53.2178","TLE_LINE2":"2 51771  53.2178 300.7150 0000789  91.0635 269.0447 15.08843647 66519","REV_AT_EPOCH":"6651","PERIOD":"95.437","MEAN_MOTION":"15.08843647"},{"MEAN_MOTION_DOT":"0.00000584","NORAD_CAT_ID":"51772","TIME_SYSTEM":"UTC","CLASSIFICATION_TYPE":"U","RA_OF_ASC_NODE":"300.4616","RCS_SIZE":"LARGE","MEAN_MOTION_DDOT":"0.0000000000000","GP_ID":"231568483","REF_FRAME":"TEME","OBJECT_ID":"2022-017E","FILE":"3904830","APOAPSIS":"540.326","TLE_LINE1":"1 51772U 22017E   23130.79364849  .00000584  00000-0  54771-4 0  9998","OBJECT_TYPE":"PAYLOAD","CENTER_NAME":"EARTH","COUNTRY_CODE":"US","EPOCH":"2023-05-10T19:02:51.229536","ELEMENT_SET_NO":"999","EPHEMERIS_TYPE":"0","LAUNCH_DATE":"2022-02-25","PERIAPSIS":"539.144","ARG_OF_PERICENTER":"68.0527","SEMIMAJOR_AXIS":"6917.870","ECCENTRICITY":"0.00008540","OBJECT_NAME":"STARLINK-3623","PERIOD":"95.437","MEAN_MOTION":"15.08843362","TLE_LINE2":"2 51772  53.2156 300.4616 0000854  68.0527 292.0556 15.08843362 66518","REV_AT_EPOCH":"6651","INCLINATION":"53.2156","BSTAR":"0.00005477100000","MEAN_ELEMENT_THEORY":"SGP4","DECAY_DATE":null,"MEAN_ANOMALY":"292.0556","SITE":"AFWTR"},{"OBJECT_TYPE":"PAYLOAD","CENTER_NAME":"EARTH","COUNTRY_CODE":"US","APOAPSIS":"540.286","TLE_LINE1":"1 51773U 22017F   23130.73476342  .00001341  00000-0  10228-3 0  9995","FILE":"3904830","CLASSIFICATION_TYPE":"U","RA_OF_ASC_NODE":"300.7244","TIME_SYSTEM":"UTC","MEAN_MOTION_DOT":"0.00001341","NORAD_CAT_ID":"51773","REF_FRAME":"TEME","OBJECT_ID":"2022-017F","MEAN_MOTION_DDOT":"0.0000000000000","GP_ID":"231567231","RCS_SIZE":"LARGE","BSTAR":"0.00010228000000","INCLINATION":"53.2163","TLE_LINE2":"2 51773  53.2163 300.7244 0000810  70.8705 289.2375 15.08846528 66512","REV_AT_EPOCH":"6651","PERIOD":"95.437","MEAN_MOTION":"15.08846528","SITE":"AFWTR","MEAN_ELEMENT_THEORY":"SGP4","DECAY_DATE":null,"MEAN_ANOMALY":"289.2375","LAUNCH_DATE":"2022-02-25","EPHEMERIS_TYPE":"0","ELEMENT_SET_NO":"999","EPOCH":"2023-05-10T17:38:03.559488","OBJECT_NAME":"STARLINK-3624","SEMIMAJOR_AXIS":"6917.860","ECCENTRICITY":"0.00008100","ARG_OF_PERICENTER":"70.8705","PERIAPSIS":"539.165"},{"INCLINATION":"53.2170","BSTAR":"0.00017215000000","MEAN_MOTION":"15.08851365","PERIOD":"95.437","REV_AT_EPOCH":"6649","TLE_LINE2":"2 51774  53.2170 300.1987 0001091  87.2209 272.8908 15.08851365 66494","MEAN_ANOMALY":"272.8908","DECAY_DATE":null,"MEAN_ELEMENT_THEORY":"SGP4","SITE":"AFWTR","EPHEMERIS_TYPE":"0","LAUNCH_DATE":"2022-02-25","EPOCH":"2023-05-10T20:27:38.081376","ELEMENT_SET_NO":"999","ARG_OF_PERICENTER":"87.2209","ECCENTRICITY":"0.00010910","SEMIMAJOR_AXIS":"6917.846","OBJECT_NAME":"STARLINK-3629","PERIAPSIS":"538.956","TLE_LINE1":"1 51774U 22017G   23130.85252409  .00002454  00000-0  17215-3 0  9994","APOAPSIS":"540.465","COUNTRY_CODE":"US","OBJECT_TYPE":"PAYLOAD","CENTER_NAME":"EARTH","FILE":"3904830","RA_OF_ASC_NODE":"300.1987","CLASSIFICATION_TYPE":"U","NORAD_CAT_ID":"51774","MEAN_MOTION_DOT":"0.00002454","TIME_SYSTEM":"UTC","GP_ID":"231566980","MEAN_MOTION_DDOT":"0.0000000000000","OBJECT_ID":"2022-017G","REF_FRAME":"TEME","RCS_SIZE":"LARGE"}];
